OBJECT_NAME,OBJECT_ID,EPOCH,MEAN_MOTION,ECCENTRICITY,INCLINATION,RA_OF_ASC_NODE,ARG_OF_PERICENTER,MEAN_ANOMALY,EPHEMERIS_TYPE,CLASSIFICATION_TYPE,NORAD_CAT_ID,ELEMENT_SET_NO,REV_AT_EPOCH,BSTAR,MEAN_MOTION_DOT,MEAN_MOTION_DDOT
FLOCK 4BE-9,2024-149AY,2026-07-16T16:42:28.181664,15.41640499,.00038347,97.3789,282.2704,166.7214,193.4134,0,U,60514,999,10686,.28512528E-3,.11929E-3,0
FLOCK 4BE-6,2024-149BA,2026-07-17T11:07:25.984416,15.40356895,.00045748,97.3783,282.3457,165.9100,194.2275,0,U,60516,999,10693,.20776585E-3,.8304E-4,0
FLOCK 4BE-14,2024-149BB,2026-07-16T18:27:36.920448,15.41887264,.00055298,97.3690,281.8103,171.7333,188.4006,0,U,60517,999,10688,.24668041E-3,.10395E-3,0
FLOCK 4BE-1,2024-149BC,2026-07-16T19:38:54.086784,15.43549394,.00051605,97.3777,283.2454,171.1965,188.9375,0,U,60518,999,10694,.25496786E-3,.11365E-3,0
FLOCK 4BE-28,2024-149BD,2026-07-17T01:04:44.740992,15.46393426,.00052716,97.3742,284.2976,169.9373,190.1983,0,U,60519,999,10705,.55835361E-3,.27587E-3,0
IPERDRONE.0,2024-149BE,2026-07-16T20:03:39.301920,15.71268093,.00040039,97.3770,292.6128,164.5496,195.5890,0,U,60520,999,10756,.48349373E-3,.61387E-3,0
TRANSPORTER-11 OBJECT BF,2024-149BF,2026-07-16T19:03:23.300352,16.14064388,.00110378,97.3801,296.5346,251.5408,108.4678,0,U,60521,999,10780,.1017604E-2,.1228239E-1,.1062142E-2
CONNECTA IOT-2,2024-149BG,2026-07-16T17:23:37.707936,15.24202017,.0005706,97.3834,275.4257,206.6598,153.4347,0,U,60522,999,10639,.10037503E-3,.2375E-4,0
CONNECTA IOT-4,2024-149BJ,2026-07-16T18:50:42.079200,15.43209040,.00061573,97.3795,282.5273,169.8493,190.2881,0,U,60524,999,10689,.2811852E-3,.12403E-3,0
ORESAT0.5,2024-149BK,2026-07-17T00:40:46.003008,15.46153168,.00063382,97.3723,284.5078,158.6450,201.5065,0,U,60525,999,10708,.25648358E-3,.12499E-3,0
DEIMOS,2024-149BL,2026-07-16T21:12:03.762432,15.45232619,.00060784,97.3781,284.4850,164.7099,195.4335,0,U,60526,999,10703,.2480128E-3,.11706E-3,0
CUAVA-2,2024-149BM,2026-07-16T18:44:56.143968,15.36757327,.0007029,97.3721,279.3630,173.9228,186.2103,0,U,60527,999,10671,.20910096E-3,.7432E-4,0
ERNST,2024-149BN,2026-07-17T04:44:08.363328,15.39926230,.00063837,97.3803,282.1571,172.3354,187.7990,0,U,60528,999,10689,.19271823E-3,.759E-4,0
TORO,2024-149BQ,2026-07-17T11:06:28.446336,14.96519437,.00011611,97.6772,272.5655,105.0846,255.0505,0,U,60530,999,10448,.59676357E-4,.621E-5,0
HYPSO-2,2024-149BR,2026-07-16T16:59:37.896864,14.98938445,.00017195,97.6840,273.5404,97.4356,262.7063,0,U,60531,999,10447,.10597486E-3,.1223E-4,0
LEMU NGE,2024-149BS,2026-07-16T18:26:38.385312,14.95064503,.00005736,97.6836,272.1305,91.0536,269.0750,0,U,60532,999,10437,.10671069E-3,.1112E-4,0
LEMUR-2-STELLA,2024-149BT,2026-07-17T04:34:57.477792,15.12393884,.00012249,97.6732,280.7889,121.9085,238.2264,0,U,60533,999,10503,.34171112E-3,.5866E-4,0
SATELIOT_2,2024-149BU,2026-07-17T10:49:44.527584,14.96461807,.0001407,97.6821,272.8556,75.1387,284.9990,0,U,60534,999,10449,.34869849E-4,.339E-5,0
NIGHTJAR,2024-149BV,2026-07-17T11:54:08.232768,14.99179728,.00027444,97.6844,274.7779,91.6768,268.4769,0,U,60535,999,14741,.18498345E-3,.2193E-4,0
LEMUR-2-MARHISYAM,2024-149BW,2026-07-17T04:22:59.882592,15.11799755,.00022914,97.6875,281.2593,66.0951,294.0519,0,U,60536,999,10501,.34433031E-3,.5814E-4,0
SATELIOT_4,2024-149BX,2026-07-16T18:53:50.340480,14.96760462,.00008925,97.6728,271.7109,332.2460,27.8714,0,U,60537,999,10440,.36347829E-4,.359E-5,0
PICO-02A021,2024-149BY,2026-07-16T04:27:28.626336,15.03492308,.0003713,97.6737,275.7720,277.2422,82.8381,0,U,60538,999,10409,.1474E-3,.1948E-4,0
ICEYE-X43,2024-149BZ,2026-07-17T04:28:26.976576,14.99789309,.00064289,97.6794,274.7489,338.9157,21.1800,0,U,60539,999,10461,.54805782E-4,.619E-5,0
HAWK-10A,2024-149CA,2026-07-17T04:34:13.623744,14.96593681,.00029227,97.6886,273.5864,355.0180,5.1012,0,U,60540,999,10447,.20043805E-4,.171E-5,0
UMBRA-09,2024-149CB,2026-07-16T18:53:15.278496,15.18878818,.00020145,97.6973,285.5169,198.9521,161.1638,0,U,60541,999,10521,.42989155E-3,.8897E-4,0
QPS-SAR-8 (AMATERU-IV),2024-149CC,2026-07-17T11:01:50.235744,15.04404092,.00034154,97.6651,277.3600,36.7669,323.3791,0,U,60542,999,10482,.12993145E-3,.1753E-4,0
ARCTIC WEATHER SATELLITE,2024-149CD,2026-07-17T02:37:01.159680,14.89805284,.0002754,97.6790,267.7173,46.7630,313.3818,0,U,60543,999,10375,.37262042E-4,.304E-5,0
CAPELLA-15 (ACADIA-5),2024-149CE,2026-07-17T02:12:03.295584,14.92399165,.00029959,97.6761,270.2449,337.8679,22.2411,0,U,60544,999,10431,.18937501E-3,.1884E-4,0
HAWK-10B,2024-149CF,2026-07-17T10:59:08.725632,14.96592800,.00051896,97.6804,273.1735,6.2321,353.8964,0,U,60545,999,10451,.25272721E-4,.231E-5,0
ICEYE-X39,2024-149CG,2026-07-17T07:06:14.556384,15.00082591,.00068994,97.6794,274.9148,40.8493,319.3246,0,U,60546,999,10463,.18388181E-3,.2233E-4,0
